{
  "type": "FeatureCollection",
  "features": [
    {
      "type": "Feature",
      "properties": {
        "norad_id": 30606,
        "name": "FENGYUN 1C DEB",
        "group": "fengyun-1c-debris",
        "lat": -74.06847919375224,
        "lon": 152.71202762939018,
        "alt_km": 817.9854630986756,
        "timestamp": "2025-12-18T14:52:08.303270+00:00",
        "meta_object_name": "FENGYUN 1C DEB",
        "meta_object_id": "1999-025AMM",
        "meta_epoch": "2025-12-17T18:11:50.220096",
        "meta_mean_motion": 14.57668472,
        "meta_eccentricity": 0.021428,
        "meta_inclination": 98.0956,
        "meta_ra_of_asc_node": 1.7832,
        "meta_arg_of_pericenter": 121.5879,
        "meta_mean_anomaly": 295.739,
        "meta_ephemeris_type": 0,
        "meta_classification_type": "U",
        "meta_norad_cat_id": 30606,
        "meta_element_set_no": 999,
        "meta_rev_at_epoch": 99315,
        "meta_bstar": 0.00045604961,
        "meta_mean_motion_dot": 2.802e-05,
        "meta_mean_motion_ddot": 0,
        "tle_line1": "1 30606U 99025AMM 25351.75822014  .00002802  00000+0  45605-3 0  9999",
        "tle_line2": "2 30606  98.0956   1.7832 0214280 121.5879 295.7390 14.57668472993157"
      },
      "geometry": {
        "type": "Point",
        "coordinates": [
          152.71202762939018,
          -74.06847919375224
        ]
      }
    },
    {
      "type": "Feature",
      "properties": {
        "norad_id": 30608,
        "name": "FENGYUN 1C DEB",
        "group": "fengyun-1c-debris",
        "lat": 80.25420453827167,
        "lon": -7.924656880109155,
        "alt_km": 786.6109092833567,
        "timestamp": "2025-12-18T14:52:08.303280+00:00",
        "meta_object_name": "FENGYUN 1C DEB",
        "meta_object_id": "1999-025AMP",
        "meta_epoch": "2025-12-18T04:42:00.536256",
        "meta_mean_motion": 14.28506084,
        "meta_eccentricity": 0.00162412,
        "meta_inclination": 98.7102,
        "meta_ra_of_asc_node": 54.849,
        "meta_arg_of_pericenter": 163.6259,
        "meta_mean_anomaly": 264.4875,
        "meta_ephemeris_type": 0,
        "meta_classification_type": "U",
        "meta_norad_cat_id": 30608,
        "meta_element_set_no": 999,
        "meta_rev_at_epoch": 97517,
        "meta_bstar": 0.00091294502,
        "meta_mean_motion_dot": 2.246e-05,
        "meta_mean_motion_ddot": 0,
        "tle_line1": "1 30608U 99025AMP 25352.19583954  .00002246  00000+0  91295-3 0  9995",
        "tle_line2": "2 30608  98.7102  54.8490 0016241 163.6259 264.4875 14.28506084975175"
      },
      "geometry": {
        "type": "Point",
        "coordinates": [
          -7.924656880109155,
          80.25420453827167
        ]
      }
    },
    {
      "type": "Feature",
      "properties": {
        "norad_id": 30609,
        "name": "FENGYUN 1C DEB",
        "group": "fengyun-1c-debris",
        "lat": -30.64028545238525,
        "lon": -85.90616962874732,
        "alt_km": 826.7612630130043,
        "timestamp": "2025-12-18T14:52:08.303291+00:00",
        "meta_object_name": "FENGYUN 1C DEB",
        "meta_object_id": "1999-025AMQ",
        "meta_epoch": "2025-12-17T16:53:36.248064",
        "meta_mean_motion": 14.11254346,
        "meta_eccentricity": 0.01197276,
        "meta_inclination": 98.569,
        "meta_ra_of_asc_node": 268.0956,
        "meta_arg_of_pericenter": 39.0459,
        "meta_mean_anomaly": 321.9281,
        "meta_ephemeris_type": 0,
        "meta_classification_type": "U",
        "meta_norad_cat_id": 30609,
        "meta_element_set_no": 999,
        "meta_rev_at_epoch": 95798,
        "meta_bstar": 0.002108733,
        "meta_mean_motion_dot": 4.032e-05,
        "meta_mean_motion_ddot": 0,
        "tle_line1": "1 30609U 99025AMQ 25351.70389176  .00004032  00000+0  21087-2 0  9998",
        "tle_line2": "2 30609  98.5690 268.0956 0119727  39.0459 321.9281 14.11254346957985"
      },
      "geometry": {
        "type": "Point",
        "coordinates": [
          -85.90616962874732,
          -30.64028545238525
        ]
      }
    },
    {
      "type": "Feature",
      "properties": {
        "norad_id": 30612,
        "name": "FENGYUN 1C DEB",
        "group": "fengyun-1c-debris",
        "lat": -44.53724355119733,
        "lon": 154.03380956489192,
        "alt_km": 483.9709850195377,
        "timestamp": "2025-12-18T14:52:08.303301+00:00",
        "meta_object_name": "FENGYUN 1C DEB",
        "meta_object_id": "1999-025AMT",
        "meta_epoch": "2025-12-18T06:06:01.865664",
        "meta_mean_motion": 15.30915951,
        "meta_eccentricity": 0.00276031,
        "meta_inclination": 99.081,
        "meta_ra_of_asc_node": 342.6423,
        "meta_arg_of_pericenter": 330.0363,
        "meta_mean_anomaly": 43.0615,
        "meta_ephemeris_type": 0,
        "meta_classification_type": "U",
        "meta_norad_cat_id": 30612,
        "meta_element_set_no": 999,
        "meta_rev_at_epoch": 342,
        "meta_bstar": 0.0034227638,
        "meta_mean_motion_dot": 0.00104668,
        "meta_mean_motion_ddot": 0,
        "tle_line1": "1 30612U 99025AMT 25352.25418826  .00104668  00000+0  34228-2 0  9995",
        "tle_line2": "2 30612  99.0810 342.6423 0027603 330.0363  43.0615 15.30915951  3428"
      },
      "geometry": {
        "type": "Point",
        "coordinates": [
          154.03380956489192,
          -44.53724355119733
        ]
      }
    },
    {
      "type": "Feature",
      "properties": {
        "norad_id": 30613,
        "name": "FENGYUN 1C DEB",
        "group": "fengyun-1c-debris",
        "lat": 69.45597572504599,
        "lon": 89.98971156953287,
        "alt_km": 493.296797323831,
        "timestamp": "2025-12-18T14:52:08.303311+00:00",
        "meta_object_name": "FENGYUN 1C DEB",
        "meta_object_id": "1999-025AMU",
        "meta_epoch": "2025-12-18T06:38:50.696160",
        "meta_mean_motion": 15.1837678,
        "meta_eccentricity": 0.00636651,
        "meta_inclination": 98.3065,
        "meta_ra_of_asc_node": 112.5591,
        "meta_arg_of_pericenter": 148.8165,
        "meta_mean_anomaly": 211.6869,
        "meta_ephemeris_type": 0,
        "meta_classification_type": "U",
        "meta_norad_cat_id": 30613,
        "meta_element_set_no": 999,
        "meta_rev_at_epoch": 99480,
        "meta_bstar": 0.0043744546,
        "meta_mean_motion_dot": 0.00095835,
        "meta_mean_motion_ddot": 0,
        "tle_line1": "1 30613U 99025AMU 25352.27697565  .00095835  00000+0  43745-2 0  9996",
        "tle_line2": "2 30613  98.3065 112.5591 0063665 148.8165 211.6869 15.18376780994808"
      },
      "geometry": {
        "type": "Point",
        "coordinates": [
          89.98971156953287,
          69.45597572504599
        ]
      }
    },
    {
      "type": "Feature",
      "properties": {
        "norad_id": 30616,
        "name": "FENGYUN 1C DEB",
        "group": "fengyun-1c-debris",
        "lat": -75.4398196343593,
        "lon": 85.77126815648045,
        "alt_km": 909.7470507592998,
        "timestamp": "2025-12-18T14:52:08.303321+00:00",
        "meta_object_name": "FENGYUN 1C DEB",
        "meta_object_id": "1999-025AMX",
        "meta_epoch": "2025-12-17T21:16:52.305600",
        "meta_mean_motion": 13.36030619,
        "meta_eccentricity": 0.03809642,
        "meta_inclination": 98.6414,
        "meta_ra_of_asc_node": 49.3138,
        "meta_arg_of_pericenter": 243.0668,
        "meta_mean_anomaly": 113.1068,
        "meta_ephemeris_type": 0,
        "meta_classification_type": "U",
        "meta_norad_cat_id": 30616,
        "meta_element_set_no": 999,
        "meta_rev_at_epoch": 91769,
        "meta_bstar": 0.0017910947,
        "meta_mean_motion_dot": 1.351e-05,
        "meta_mean_motion_ddot": 0,
        "tle_line1": "1 30616U 99025AMX 25351.88671650  .00001351  00000+0  17911-2 0  9998",
        "tle_line2": "2 30616  98.6414  49.3138 0380964 243.0668 113.1068 13.36030619917691"
      },
      "geometry": {
        "type": "Point",
        "coordinates": [
          85.77126815648045,
          -75.4398196343593
        ]
      }
    },
    {
      "type": "Feature",
      "properties": {
        "norad_id": 30619,
        "name": "FENGYUN 1C DEB",
        "group": "fengyun-1c-debris",
        "lat": -66.43642999068742,
        "lon": 34.923772634001985,
        "alt_km": 808.1659729321418,
        "timestamp": "2025-12-18T14:52:08.303331+00:00",
        "meta_object_name": "FENGYUN 1C DEB",
        "meta_object_id": "1999-025ANA",
        "meta_epoch": "2025-12-17T20:51:01.268352",
        "meta_mean_motion": 14.41107728,
        "meta_eccentricity": 0.02156925,
        "meta_inclination": 98.2951,
        "meta_ra_of_asc_node": 14.6517,
        "meta_arg_of_pericenter": 43.055,
        "meta_mean_anomaly": 318.729,
        "meta_ephemeris_type": 0,
        "meta_classification_type": "U",
        "meta_norad_cat_id": 30619,
        "meta_element_set_no": 999,
        "meta_rev_at_epoch": 99023,
        "meta_bstar": 0.00025890542,
        "meta_mean_motion_dot": 1.05e-05,
        "meta_mean_motion_ddot": 0,
        "tle_line1": "1 30619U 99025ANA 25351.86876468  .00001050  00000+0  25891-3 0  9996",
        "tle_line2": "2 30619  98.2951  14.6517 0215692  43.0550 318.7290 14.41107728990239"
      },
      "geometry": {
        "type": "Point",
        "coordinates": [
          34.923772634001985,
          -66.43642999068742
        ]
      }
    }
  ]
}